{
    "links": {
        "self": "http://www.neowsapp.com/rest/v1/neo/3754253?api_key=iIulBulltgU6a56xZRHN4H3l9WmuAYTsLGpBGhQ2"
    },
    "id": "3754253",
    "neo_reference_id": "3754253",
    "name": "(2016 LL48)",
    "designation": "2016 LL48",
    "nasa_jpl_url": "http://ssd.jpl.nasa.gov/sbdb.cgi?sstr=3754253",
    "absolute_magnitude_h": 20.2,
    "estimated_diameter": {
        "kilometers": {
            "estimated_diameter_min": 0.2424124811,
            "estimated_diameter_max": 0.5420507863
        },
        "meters": {
            "estimated_diameter_min": 242.4124811008,
            "estimated_diameter_max": 542.0507863358
        },
        "miles": {
            "estimated_diameter_min": 0.1506280858,
            "estimated_diameter_max": 0.3368146392
        },
        "feet": {
            "estimated_diameter_min": 795.3165644948,
            "estimated_diameter_max": 1778.3819018419
        }
    },
    "is_potentially_hazardous_asteroid": false,
    "close_approach_data": [
        {
            "close_approach_date": "2015-12-02",
            "close_approach_date_full": "2015-Dec-02 07:34",
            "epoch_date_close_approach": 1449041640000,
            "relative_velocity": {
                "kilometers_per_second": "30.1782587587",
                "kilometers_per_hour": "108641.7315314096",
                "miles_per_hour": "67505.7470173917"
            },
            "miss_distance": {
                "astronomical": "0.3115546879",
                "lunar": "121.1947735931",
                "kilometers": "46607917.698354773",
                "miles": "28960817.1268229474"
            },
            "orbiting_body": "Earth"
        }
    ],
    "orbital_data": {
        "orbit_id": "3",
        "orbit_determination_date": "2017-04-06 08:25:21",
        "first_observation_date": "2016-06-05",
        "last_observation_date": "2016-06-13",
        "data_arc_in_days": 8,
        "observations_used": 14,
        "orbit_uncertainty": "8",
        "minimum_orbit_intersection": ".311998",
        "jupiter_tisserand_invariant": "4.132",
        "epoch_osculation": "2457546.5",
        "eccentricity": ".5762695652819521",
        "semi_major_axis": "1.500464732213091",
        "inclination": "40.86836743616843",
        "ascending_node_longitude": "79.05490001789889",
        "orbital_period": "671.3316381036218",
        "perihelion_distance": ".6357925732597526",
        "perihelion_argument": "28.15665140066003",
        "aphelion_distance": "2.36513689116643",
        "perihelion_time": "2457375.602458353650",
        "mean_anomaly": "91.64340171197138",
        "mean_motion": ".5362476301830915",
        "equinox": "J2000",
        "orbit_class": {
            "orbit_class_type": "APO",
            "orbit_class_description": "Near-Earth asteroid orbits which cross the Earth’s orbit similar to that of 1862 Apollo",
            "orbit_class_range": "a (semi-major axis) > 1.0 AU; q (perihelion) < 1.017 AU"
        }
    },
    "is_sentry_object": false
}